{
  "norad_id": 60154,
  "name": "STARLINK-32145",
  "history": [
    {
      "epoch": "2026-03-28T20:36:26.961696Z",
      "apogee_km": 476.0900237404285,
      "perigee_km": 474.33899243011183,
      "latitude_deg": 1.1750196787666663e-05,
      "longitude_deg": 95.30821292900963,
      "height_km": 476.1655523971798,
      "semi_major_axis_km": 6853.351508085269,
      "eccentricity": 0.00012775,
      "inclination_deg": 53.1598,
      "raan_deg": 230.6936,
      "arg_perigee_deg": 93.4706,
      "mean_anomaly_deg": 266.6441,
      "mean_motion_rev_day": 15.30200188
    },
    {
      "epoch": "2026-03-29T02:52:41.259936Z",
      "apogee_km": 476.15171413044845,
      "perigee_km": 474.4040933299975,
      "latitude_deg": -6.549367759081407e-05,
      "longitude_deg": -0.22174658363702016,
      "height_km": 476.1801901473706,
      "semi_major_axis_km": 6853.414903730222,
      "eccentricity": 0.0001275,
      "inclination_deg": 53.1599,
      "raan_deg": 229.4808,
      "arg_perigee_deg": 90.2772,
      "mean_anomaly_deg": 269.8374,
      "mean_motion_rev_day": 15.30178956
    }
  ]
}